COSMOS 1933             
1 18958U 88020A   26007.93557762  .00004043  00000+0  20081-3 0  9992
2 18958  82.5147 310.9928 0006180  62.2721 297.9139 15.17389707 41011
SL-3 R/B                
1 19046U 88032B   26007.94986407  .00005226  00000+0  24997-3 0  9991
2 19046  97.5113 351.4973 0028467  86.0487 274.4001 15.19068864 42888
SL-16 R/B               
1 19120U 88039B   26007.95942609  .00000011  00000+0  27975-4 0  9995
2 19120  71.0133 196.9598 0019619  71.2897 289.0355 14.19603764949765
COSMOS 1953             
1 19210U 88050A   26006.86628059  .00006843  00000+0  25443-3 0  9993
2 19210  82.5067 220.3632 0011626 349.1631  10.9355 15.27279129 28349
SL-8 R/B                
1 19257U 88053B   26007.96875654  .00000229  00000+0  82721-4 0  9999
2 19257  74.0458 224.3794 0019123  58.6811  45.1755 14.38878157967865
COSMOS 1975             
1 19573U 88093A   26007.93286332  .00006845  00000+0  25726-3 0  9991
2 19573  82.5201 178.5984 0012264  29.2993 330.8931 15.26916404 10136
SL-14 R/B               
1 19574U 88093B   26007.99757032  .00000552  00000+0  60889-4 0  9997
2 19574  82.5316  99.0272 0019468 236.6369 296.3294 14.85584745992023
SL-16 R/B               
1 19650U 88102B   26007.94679008 -.00000063  00000+0 -76200-5 0  9998
2 19650  70.9998 279.3025 0011942 106.2200 254.0238 14.16141362918293
INTERCOSMOS 24          
1 20261U 89080A   26007.88044966  .00000471  00000+0  12949-3 0  9995
2 20261  82.6073 143.9603 1188972  73.9083 298.9426 12.59480837659143
SL-14 R/B               
1 20262U 89080C   26007.82585847  .00000303  00000+0  90277-4 0  9993
2 20262  82.5910 212.2709 1230013 323.9682  28.4213 12.50435023652542
DELTA 1 R/B             
1 20323U 89089B   26007.85175120  .00000498  00000+0  13234-3 0  9994
2 20323  97.0737 224.9496 0068084 315.8863  43.6916 14.50599980886912
ARIANE 40 R/B           
1 20443U 90005H   26007.72996144  .00000345  00000+0  12342-3 0  9990
2 20443  98.3203  70.1689 0010589  34.2279 325.9590 14.39821711884034
