CCSDS_OMM_VERS = 2.0
CREATION_DATE  = 
ORIGINATOR     = 

OBJECT_NAME    = COSMOS 1933
OBJECT_ID      = 1988-020A
CENTER_NAME    = EARTH
REF_FRAME      = TEME
TIME_SYSTEM    = UTC
MEAN_ELEMENT_THEORY = SGP/SGP4

EPOCH          = 2026-01-07T22:27:13.906368
MEAN_MOTION    = 15.17389707
ECCENTRICITY   = .00061806
INCLINATION    = 82.5147
RA_OF_ASC_NODE = 310.9928
ARG_OF_PERICENTER = 62.2721
MEAN_ANOMALY   = 297.9139

EPHEMERIS_TYPE = 0
CLASSIFICATION_TYPE = U
NORAD_CAT_ID   = 18958
ELEMENT_SET_NO = 999
REV_AT_EPOCH   = 4101
BSTAR          = .20081385E-3
MEAN_MOTION_DOT = .4043E-4
MEAN_MOTION_DDOT = 0

CCSDS_OMM_VERS = 2.0
CREATION_DATE  = 
ORIGINATOR     = 

OBJECT_NAME    = SL-3 R/B
OBJECT_ID      = 1988-032B
CENTER_NAME    = EARTH
REF_FRAME      = TEME
TIME_SYSTEM    = UTC
MEAN_ELEMENT_THEORY = SGP/SGP4

EPOCH          = 2026-01-07T22:47:48.255648
MEAN_MOTION    = 15.19068864
ECCENTRICITY   = .00284675
INCLINATION    = 97.5113
RA_OF_ASC_NODE = 351.4973
ARG_OF_PERICENTER = 86.0487
MEAN_ANOMALY   = 274.4001

EPHEMERIS_TYPE = 0
CLASSIFICATION_TYPE = U
NORAD_CAT_ID   = 19046
ELEMENT_SET_NO = 999
REV_AT_EPOCH   = 4288
BSTAR          = .24996841E-3
MEAN_MOTION_DOT = .5226E-4
MEAN_MOTION_DDOT = 0

CCSDS_OMM_VERS = 2.0
CREATION_DATE  = 
ORIGINATOR     = 

OBJECT_NAME    = SL-16 R/B
OBJECT_ID      = 1988-039B
CENTER_NAME    = EARTH
REF_FRAME      = TEME
TIME_SYSTEM    = UTC
MEAN_ELEMENT_THEORY = SGP/SGP4

EPOCH          = 2026-01-07T23:01:34.414176
MEAN_MOTION    = 14.19603764
ECCENTRICITY   = .0019619
INCLINATION    = 71.0133
RA_OF_ASC_NODE = 196.9598
ARG_OF_PERICENTER = 71.2897
MEAN_ANOMALY   = 289.0355

EPHEMERIS_TYPE = 0
CLASSIFICATION_TYPE = U
NORAD_CAT_ID   = 19120
ELEMENT_SET_NO = 999
REV_AT_EPOCH   = 94976
BSTAR          = .27975428E-4
MEAN_MOTION_DOT = .11E-6
MEAN_MOTION_DDOT = 0

CCSDS_OMM_VERS = 2.0
CREATION_DATE  = 
ORIGINATOR     = 

OBJECT_NAME    = COSMOS 1953
OBJECT_ID      = 1988-050A
CENTER_NAME    = EARTH
REF_FRAME      = TEME
TIME_SYSTEM    = UTC
MEAN_ELEMENT_THEORY = SGP/SGP4

EPOCH          = 2026-01-06T20:47:26.642976
MEAN_MOTION    = 15.27279129
ECCENTRICITY   = .0011626
INCLINATION    = 82.5067
RA_OF_ASC_NODE = 220.3632
ARG_OF_PERICENTER = 349.1631
MEAN_ANOMALY   = 10.9355

EPHEMERIS_TYPE = 0
CLASSIFICATION_TYPE = U
NORAD_CAT_ID   = 19210
ELEMENT_SET_NO = 999
REV_AT_EPOCH   = 2834
BSTAR          = .25443E-3
MEAN_MOTION_DOT = .6843E-4
MEAN_MOTION_DDOT = 0

CCSDS_OMM_VERS = 2.0
CREATION_DATE  = 
ORIGINATOR     = 

OBJECT_NAME    = SL-8 R/B
OBJECT_ID      = 1988-053B
CENTER_NAME    = EARTH
REF_FRAME      = TEME
TIME_SYSTEM    = UTC
MEAN_ELEMENT_THEORY = SGP/SGP4

EPOCH          = 2026-01-07T23:15:00.565056
MEAN_MOTION    = 14.38878157
ECCENTRICITY   = .00191231
INCLINATION    = 74.0458
RA_OF_ASC_NODE = 224.3794
ARG_OF_PERICENTER = 58.6811
MEAN_ANOMALY   = 45.1755

EPHEMERIS_TYPE = 0
CLASSIFICATION_TYPE = U
NORAD_CAT_ID   = 19257
ELEMENT_SET_NO = 999
REV_AT_EPOCH   = 96786
BSTAR          = .8272081E-4
MEAN_MOTION_DOT = .229E-5
MEAN_MOTION_DDOT = 0

CCSDS_OMM_VERS = 2.0
CREATION_DATE  = 
ORIGINATOR     = 

OBJECT_NAME    = COSMOS 1975
OBJECT_ID      = 1988-093A
CENTER_NAME    = EARTH
REF_FRAME      = TEME
TIME_SYSTEM    = UTC
MEAN_ELEMENT_THEORY = SGP/SGP4

EPOCH          = 2026-01-07T22:23:19.390848
MEAN_MOTION    = 15.26916404
ECCENTRICITY   = .0012264
INCLINATION    = 82.5201
RA_OF_ASC_NODE = 178.5984
ARG_OF_PERICENTER = 29.2993
MEAN_ANOMALY   = 330.8931

EPHEMERIS_TYPE = 0
CLASSIFICATION_TYPE = U
NORAD_CAT_ID   = 19573
ELEMENT_SET_NO = 999
REV_AT_EPOCH   = 1013
BSTAR          = .25725701E-3
MEAN_MOTION_DOT = .6845E-4
MEAN_MOTION_DDOT = 0

CCSDS_OMM_VERS = 2.0
CREATION_DATE  = 
ORIGINATOR     = 

OBJECT_NAME    = SL-14 R/B
OBJECT_ID      = 1988-093B
CENTER_NAME    = EARTH
REF_FRAME      = TEME
TIME_SYSTEM    = UTC
MEAN_ELEMENT_THEORY = SGP/SGP4

EPOCH          = 2026-01-07T23:56:30.075648
MEAN_MOTION    = 14.85584745
ECCENTRICITY   = .00194687
INCLINATION    = 82.5316
RA_OF_ASC_NODE = 99.0272
ARG_OF_PERICENTER = 236.6369
MEAN_ANOMALY   = 296.3294

EPHEMERIS_TYPE = 0
CLASSIFICATION_TYPE = U
NORAD_CAT_ID   = 19574
ELEMENT_SET_NO = 999
REV_AT_EPOCH   = 99202
BSTAR          = .60888757E-4
MEAN_MOTION_DOT = .552E-5
MEAN_MOTION_DDOT = 0

CCSDS_OMM_VERS = 2.0
CREATION_DATE  = 
ORIGINATOR     = 

OBJECT_NAME    = SL-16 R/B
OBJECT_ID      = 1988-102B
CENTER_NAME    = EARTH
REF_FRAME      = TEME
TIME_SYSTEM    = UTC
MEAN_ELEMENT_THEORY = SGP/SGP4

EPOCH          = 2026-01-07T22:43:22.662912
MEAN_MOTION    = 14.16141362
ECCENTRICITY   = .00119427
INCLINATION    = 70.9998
RA_OF_ASC_NODE = 279.3025
ARG_OF_PERICENTER = 106.2200
MEAN_ANOMALY   = 254.0238

EPHEMERIS_TYPE = 0
CLASSIFICATION_TYPE = U
NORAD_CAT_ID   = 19650
ELEMENT_SET_NO = 999
REV_AT_EPOCH   = 91829
BSTAR          = -.7619971E-5
MEAN_MOTION_DOT = -.63E-6
MEAN_MOTION_DDOT = 0

CCSDS_OMM_VERS = 2.0
CREATION_DATE  = 
ORIGINATOR     = 

OBJECT_NAME    = INTERCOSMOS 24
OBJECT_ID      = 1989-080A
CENTER_NAME    = EARTH
REF_FRAME      = TEME
TIME_SYSTEM    = UTC
MEAN_ELEMENT_THEORY = SGP/SGP4

EPOCH          = 2026-01-07T21:07:50.850624
MEAN_MOTION    = 12.59480837
ECCENTRICITY   = .11889723
INCLINATION    = 82.6073
RA_OF_ASC_NODE = 143.9603
ARG_OF_PERICENTER = 73.9083
MEAN_ANOMALY   = 298.9426

EPHEMERIS_TYPE = 0
CLASSIFICATION_TYPE = U
NORAD_CAT_ID   = 20261
ELEMENT_SET_NO = 999
REV_AT_EPOCH   = 65914
BSTAR          = .12949371E-3
MEAN_MOTION_DOT = .471E-5
MEAN_MOTION_DDOT = 0

CCSDS_OMM_VERS = 2.0
CREATION_DATE  = 
ORIGINATOR     = 

OBJECT_NAME    = SL-14 R/B
OBJECT_ID      = 1989-080C
CENTER_NAME    = EARTH
REF_FRAME      = TEME
TIME_SYSTEM    = UTC
MEAN_ELEMENT_THEORY = SGP/SGP4

EPOCH          = 2026-01-07T19:49:14.171808
MEAN_MOTION    = 12.50435023
ECCENTRICITY   = .12300133
INCLINATION    = 82.5910
RA_OF_ASC_NODE = 212.2709
ARG_OF_PERICENTER = 323.9682
MEAN_ANOMALY   = 28.4213

EPHEMERIS_TYPE = 0
CLASSIFICATION_TYPE = U
NORAD_CAT_ID   = 20262
ELEMENT_SET_NO = 999
REV_AT_EPOCH   = 65254
BSTAR          = .90276711E-4
MEAN_MOTION_DOT = .303E-5
MEAN_MOTION_DDOT = 0

CCSDS_OMM_VERS = 2.0
CREATION_DATE  = 
ORIGINATOR     = 

OBJECT_NAME    = DELTA 1 R/B
OBJECT_ID      = 1989-089B
CENTER_NAME    = EARTH
REF_FRAME      = TEME
TIME_SYSTEM    = UTC
MEAN_ELEMENT_THEORY = SGP/SGP4

EPOCH          = 2026-01-07T20:26:31.303680
MEAN_MOTION    = 14.50599980
ECCENTRICITY   = .00680841
INCLINATION    = 97.0737
RA_OF_ASC_NODE = 224.9496
ARG_OF_PERICENTER = 315.8863
MEAN_ANOMALY   = 43.6916

EPHEMERIS_TYPE = 0
CLASSIFICATION_TYPE = U
NORAD_CAT_ID   = 20323
ELEMENT_SET_NO = 999
REV_AT_EPOCH   = 88691
BSTAR          = .13233834E-3
MEAN_MOTION_DOT = .498E-5
MEAN_MOTION_DDOT = 0

CCSDS_OMM_VERS = 2.0
CREATION_DATE  = 
ORIGINATOR     = 

OBJECT_NAME    = ARIANE 40 R/B
OBJECT_ID      = 1990-005H
CENTER_NAME    = EARTH
REF_FRAME      = TEME
TIME_SYSTEM    = UTC
MEAN_ELEMENT_THEORY = SGP/SGP4

EPOCH          = 2026-01-07T17:31:08.668416
MEAN_MOTION    = 14.39821711
ECCENTRICITY   = .00105895
INCLINATION    = 98.3203
RA_OF_ASC_NODE = 70.1689
ARG_OF_PERICENTER = 34.2279
MEAN_ANOMALY   = 325.9590

EPHEMERIS_TYPE = 0
CLASSIFICATION_TYPE = U
NORAD_CAT_ID   = 20443
ELEMENT_SET_NO = 999
REV_AT_EPOCH   = 88403
BSTAR          = .12341929E-3
MEAN_MOTION_DOT = .345E-5
MEAN_MOTION_DDOT = 0

